[{"OBJECT_NAME":"LEMUR-2 FIKRETDENGIZ","OBJECT_ID":"2026-004A","EPOCH":"2026-03-09T22:36:00.737280","MEAN_MOTION":14.87429813,"ECCENTRICITY":0.00106959,"INCLINATION":97.8024,"RA_OF_ASC_NODE":69.0919,"ARG_OF_PERICENTER":104.3025,"MEAN_ANOMALY":255.938,"EPHEMERIS_TYPE":0,"CLASSIFICATION_TYPE":"U","NORAD_CAT_ID":67363,"ELEMENT_SET_NO":999,"REV_AT_EPOCH":852,"BSTAR":0.00076976937,"MEAN_MOTION_DOT":6.923e-5,"MEAN_MOTION_DDOT":0},{"OBJECT_NAME":"FENGYUN 1C DEB","OBJECT_ID":"1999-025BHW","EPOCH":"2026-03-09T14:51:19.966176","MEAN_MOTION":14.68403746,"ECCENTRICITY":0.0107026,"INCLINATION":98.8991,"RA_OF_ASC_NODE":212.3286,"ARG_OF_PERICENTER":154.3231,"MEAN_ANOMALY":206.3341,"EPHEMERIS_TYPE":0,"CLASSIFICATION_TYPE":"U","NORAD_CAT_ID":31168,"ELEMENT_SET_NO":999,"REV_AT_EPOCH":372,"BSTAR":0.0013186,"MEAN_MOTION_DOT":8.266e-5,"MEAN_MOTION_DDOT":0}]
